USA 568                 
1 66551U 24134K   25336.66670139 -.01709685  00000+0 -74303-2 0  9990
2 66551  53.1571 236.7807 0000717 110.7411 313.9012 15.87051116  2624
GLOBAL-33               
1 66554U 25267A   25348.22869511  .00027606  00000+0  88998-3 0  9999
2 66554  42.0183  48.3968 0004769  75.1530 284.9835 15.31602676  3639
ELECTRON KICK STAGE R/B 
1 66555U 25267B   25349.32326886  .00017817  00000+0  55408-3 0  9998
2 66555  42.0199  41.8917 0006561  74.6649 285.4913 15.32947442  3802
STARLINK-35699          
1 66557U 25268A   25349.36311510  .00065201  00000+0  11072-2 0  9991
2 66557  42.9995 105.8570 0001643 282.8479  77.2198 15.50598676  5033
STARLINK-35695          
1 66558U 25268B   25349.04069648  .00095992  00000+0  16203-2 0  9990
2 66558  43.0001 107.7387 0003121 279.3865  80.6642 15.50607599  4984
STARLINK-35419          
1 66559U 25268C   25349.36242809  .00049890  00000+0  84985-3 0  9997
2 66559  42.9976 105.8537 0001652 268.2529  91.8142 15.50610490  5031
STARLINK-35411          
1 66560U 25268D   25349.36210739  .00066957  00000+0  11357-2 0  9991
2 66560  42.9983 105.8502 0001527 278.4443  81.6244 15.50620840  5032
STARLINK-35305          
1 66561U 25268E   25349.03932795  .00052312  00000+0  89073-3 0  9990
2 66561  42.9993 107.7280 0001274 266.5161  93.5553 15.50605489  4982
STARLINK-35579          
1 66562U 25268F   25349.36175764  .00066540  00000+0  11296-2 0  9991
2 66562  42.9985 105.8472 0001260 258.8727 101.1992 15.50599966  5035
STARLINK-35437          
1 66563U 25268G   25349.03897795  .00052277  00000+0  88922-3 0  9994
2 66563  42.9994 107.7248 0001434 267.9367  92.1329 15.50634444  4989
STARLINK-35358          
1 66564U 25268H   25349.03863680  .00054132  00000+0  92136-3 0  9995
2 66564  42.9993 107.7222 0001478 288.7254  71.3446 15.50603422  4986
STARLINK-35893          
1 66565U 25268J   25349.36037085  .00077285  00000+0  13090-2 0  9999
2 66565  43.0003 105.8353 0001572 275.8540  84.2141 15.50605141  5037
