CCSDS_OMM_VERS = 2.0
CREATION_DATE  = 
ORIGINATOR     = 

OBJECT_NAME    = USA 568
OBJECT_ID      = 2024-134K
CENTER_NAME    = EARTH
REF_FRAME      = TEME
TIME_SYSTEM    = UTC
MEAN_ELEMENT_THEORY = SGP/SGP4

EPOCH          = 2025-12-02T16:00:03.000096
MEAN_MOTION    = 15.87051116
ECCENTRICITY   = .0000717
INCLINATION    = 53.1571
RA_OF_ASC_NODE = 236.7807
ARG_OF_PERICENTER = 110.7411
MEAN_ANOMALY   = 313.9012

EPHEMERIS_TYPE = 0
CLASSIFICATION_TYPE = U
NORAD_CAT_ID   = 66551
ELEMENT_SET_NO = 999
REV_AT_EPOCH   = 262
BSTAR          = -.74303E-2
MEAN_MOTION_DOT = -.1709685E-1
MEAN_MOTION_DDOT = 0

CCSDS_OMM_VERS = 2.0
CREATION_DATE  = 
ORIGINATOR     = 

OBJECT_NAME    = GLOBAL-33
OBJECT_ID      = 2025-267A
CENTER_NAME    = EARTH
REF_FRAME      = TEME
TIME_SYSTEM    = UTC
MEAN_ELEMENT_THEORY = SGP/SGP4

EPOCH          = 2025-12-14T05:29:19.257504
MEAN_MOTION    = 15.31602676
ECCENTRICITY   = .00047698
INCLINATION    = 42.0183
RA_OF_ASC_NODE = 48.3968
ARG_OF_PERICENTER = 75.1530
MEAN_ANOMALY   = 284.9835

EPHEMERIS_TYPE = 0
CLASSIFICATION_TYPE = U
NORAD_CAT_ID   = 66554
ELEMENT_SET_NO = 999
REV_AT_EPOCH   = 363
BSTAR          = .88997621E-3
MEAN_MOTION_DOT = .27606E-3
MEAN_MOTION_DDOT = 0

CCSDS_OMM_VERS = 2.0
CREATION_DATE  = 
ORIGINATOR     = 

OBJECT_NAME    = ELECTRON KICK STAGE R/B
OBJECT_ID      = 2025-267B
CENTER_NAME    = EARTH
REF_FRAME      = TEME
TIME_SYSTEM    = UTC
MEAN_ELEMENT_THEORY = SGP/SGP4

EPOCH          = 2025-12-15T07:45:30.429504
MEAN_MOTION    = 15.32947442
ECCENTRICITY   = .00065615
INCLINATION    = 42.0199
RA_OF_ASC_NODE = 41.8917
ARG_OF_PERICENTER = 74.6649
MEAN_ANOMALY   = 285.4913

EPHEMERIS_TYPE = 0
CLASSIFICATION_TYPE = U
NORAD_CAT_ID   = 66555
ELEMENT_SET_NO = 999
REV_AT_EPOCH   = 380
BSTAR          = .55407947E-3
MEAN_MOTION_DOT = .17817E-3
MEAN_MOTION_DDOT = 0

CCSDS_OMM_VERS = 2.0
CREATION_DATE  = 
ORIGINATOR     = 

OBJECT_NAME    = STARLINK-35699
OBJECT_ID      = 2025-268A
CENTER_NAME    = EARTH
REF_FRAME      = TEME
TIME_SYSTEM    = UTC
MEAN_ELEMENT_THEORY = SGP/SGP4

EPOCH          = 2025-12-15T08:42:53.144640
MEAN_MOTION    = 15.50598676
ECCENTRICITY   = .00016437
INCLINATION    = 42.9995
RA_OF_ASC_NODE = 105.8570
ARG_OF_PERICENTER = 282.8479
MEAN_ANOMALY   = 77.2198

EPHEMERIS_TYPE = 0
CLASSIFICATION_TYPE = U
NORAD_CAT_ID   = 66557
ELEMENT_SET_NO = 999
REV_AT_EPOCH   = 503
BSTAR          = .11071964E-2
MEAN_MOTION_DOT = .65201E-3
MEAN_MOTION_DDOT = 0

CCSDS_OMM_VERS = 2.0
CREATION_DATE  = 
ORIGINATOR     = 

OBJECT_NAME    = STARLINK-35695
OBJECT_ID      = 2025-268B
CENTER_NAME    = EARTH
REF_FRAME      = TEME
TIME_SYSTEM    = UTC
MEAN_ELEMENT_THEORY = SGP/SGP4

EPOCH          = 2025-12-15T00:58:36.175872
MEAN_MOTION    = 15.50607599
ECCENTRICITY   = .00031216
INCLINATION    = 43.0001
RA_OF_ASC_NODE = 107.7387
ARG_OF_PERICENTER = 279.3865
MEAN_ANOMALY   = 80.6642

EPHEMERIS_TYPE = 0
CLASSIFICATION_TYPE = U
NORAD_CAT_ID   = 66558
ELEMENT_SET_NO = 999
REV_AT_EPOCH   = 498
BSTAR          = .16202575E-2
MEAN_MOTION_DOT = .95992E-3
MEAN_MOTION_DDOT = 0

CCSDS_OMM_VERS = 2.0
CREATION_DATE  = 
ORIGINATOR     = 

OBJECT_NAME    = STARLINK-35419
OBJECT_ID      = 2025-268C
CENTER_NAME    = EARTH
REF_FRAME      = TEME
TIME_SYSTEM    = UTC
MEAN_ELEMENT_THEORY = SGP/SGP4

EPOCH          = 2025-12-15T08:41:53.786976
MEAN_MOTION    = 15.50610490
ECCENTRICITY   = .00016529
INCLINATION    = 42.9976
RA_OF_ASC_NODE = 105.8537
ARG_OF_PERICENTER = 268.2529
MEAN_ANOMALY   = 91.8142

EPHEMERIS_TYPE = 0
CLASSIFICATION_TYPE = U
NORAD_CAT_ID   = 66559
ELEMENT_SET_NO = 999
REV_AT_EPOCH   = 503
BSTAR          = .84985172E-3
MEAN_MOTION_DOT = .4989E-3
MEAN_MOTION_DDOT = 0

CCSDS_OMM_VERS = 2.0
CREATION_DATE  = 
ORIGINATOR     = 

OBJECT_NAME    = STARLINK-35411
OBJECT_ID      = 2025-268D
CENTER_NAME    = EARTH
REF_FRAME      = TEME
TIME_SYSTEM    = UTC
MEAN_ELEMENT_THEORY = SGP/SGP4

EPOCH          = 2025-12-15T08:41:26.078496
MEAN_MOTION    = 15.50620840
ECCENTRICITY   = .00015273
INCLINATION    = 42.9983
RA_OF_ASC_NODE = 105.8502
ARG_OF_PERICENTER = 278.4443
MEAN_ANOMALY   = 81.6244

EPHEMERIS_TYPE = 0
CLASSIFICATION_TYPE = U
NORAD_CAT_ID   = 66560
ELEMENT_SET_NO = 999
REV_AT_EPOCH   = 503
BSTAR          = .11357028E-2
MEAN_MOTION_DOT = .66957E-3
MEAN_MOTION_DDOT = 0

CCSDS_OMM_VERS = 2.0
CREATION_DATE  = 
ORIGINATOR     = 

OBJECT_NAME    = STARLINK-35305
OBJECT_ID      = 2025-268E
CENTER_NAME    = EARTH
REF_FRAME      = TEME
TIME_SYSTEM    = UTC
MEAN_ELEMENT_THEORY = SGP/SGP4

EPOCH          = 2025-12-15T00:56:37.934880
MEAN_MOTION    = 15.50605489
ECCENTRICITY   = .00012742
INCLINATION    = 42.9993
RA_OF_ASC_NODE = 107.7280
ARG_OF_PERICENTER = 266.5161
MEAN_ANOMALY   = 93.5553

EPHEMERIS_TYPE = 0
CLASSIFICATION_TYPE = U
NORAD_CAT_ID   = 66561
ELEMENT_SET_NO = 999
REV_AT_EPOCH   = 498
BSTAR          = .89073152E-3
MEAN_MOTION_DOT = .52312E-3
MEAN_MOTION_DDOT = 0

CCSDS_OMM_VERS = 2.0
CREATION_DATE  = 
ORIGINATOR     = 

OBJECT_NAME    = STARLINK-35579
OBJECT_ID      = 2025-268F
CENTER_NAME    = EARTH
REF_FRAME      = TEME
TIME_SYSTEM    = UTC
MEAN_ELEMENT_THEORY = SGP/SGP4

EPOCH          = 2025-12-15T08:40:55.860096
MEAN_MOTION    = 15.50599966
ECCENTRICITY   = .00012605
INCLINATION    = 42.9985
RA_OF_ASC_NODE = 105.8472
ARG_OF_PERICENTER = 258.8727
MEAN_ANOMALY   = 101.1992

EPHEMERIS_TYPE = 0
CLASSIFICATION_TYPE = U
NORAD_CAT_ID   = 66562
ELEMENT_SET_NO = 999
REV_AT_EPOCH   = 503
BSTAR          = .11295725E-2
MEAN_MOTION_DOT = .6654E-3
MEAN_MOTION_DDOT = 0

CCSDS_OMM_VERS = 2.0
CREATION_DATE  = 
ORIGINATOR     = 

OBJECT_NAME    = STARLINK-35437
OBJECT_ID      = 2025-268G
CENTER_NAME    = EARTH
REF_FRAME      = TEME
TIME_SYSTEM    = UTC
MEAN_ELEMENT_THEORY = SGP/SGP4

EPOCH          = 2025-12-15T00:56:07.694880
MEAN_MOTION    = 15.50634444
ECCENTRICITY   = .00014347
INCLINATION    = 42.9994
RA_OF_ASC_NODE = 107.7248
ARG_OF_PERICENTER = 267.9367
MEAN_ANOMALY   = 92.1329

EPHEMERIS_TYPE = 0
CLASSIFICATION_TYPE = U
NORAD_CAT_ID   = 66563
ELEMENT_SET_NO = 999
REV_AT_EPOCH   = 498
BSTAR          = .88921968E-3
MEAN_MOTION_DOT = .52277E-3
MEAN_MOTION_DDOT = 0

CCSDS_OMM_VERS = 2.0
CREATION_DATE  = 
ORIGINATOR     = 

OBJECT_NAME    = STARLINK-35358
OBJECT_ID      = 2025-268H
CENTER_NAME    = EARTH
REF_FRAME      = TEME
TIME_SYSTEM    = UTC
MEAN_ELEMENT_THEORY = SGP/SGP4

EPOCH          = 2025-12-15T00:55:38.219520
MEAN_MOTION    = 15.50603422
ECCENTRICITY   = .0001478
INCLINATION    = 42.9993
RA_OF_ASC_NODE = 107.7222
ARG_OF_PERICENTER = 288.7254
MEAN_ANOMALY   = 71.3446

EPHEMERIS_TYPE = 0
CLASSIFICATION_TYPE = U
NORAD_CAT_ID   = 66564
ELEMENT_SET_NO = 999
REV_AT_EPOCH   = 498
BSTAR          = .92135734E-3
MEAN_MOTION_DOT = .54132E-3
MEAN_MOTION_DDOT = 0

CCSDS_OMM_VERS = 2.0
CREATION_DATE  = 
ORIGINATOR     = 

OBJECT_NAME    = STARLINK-35893
OBJECT_ID      = 2025-268J
CENTER_NAME    = EARTH
REF_FRAME      = TEME
TIME_SYSTEM    = UTC
MEAN_ELEMENT_THEORY = SGP/SGP4

EPOCH          = 2025-12-15T08:38:56.041440
MEAN_MOTION    = 15.50605141
ECCENTRICITY   = .00015725
INCLINATION    = 43.0003
RA_OF_ASC_NODE = 105.8353
ARG_OF_PERICENTER = 275.8540
MEAN_ANOMALY   = 84.2141

EPHEMERIS_TYPE = 0
CLASSIFICATION_TYPE = U
NORAD_CAT_ID   = 66565
ELEMENT_SET_NO = 999
REV_AT_EPOCH   = 503
BSTAR          = .13089942E-2
MEAN_MOTION_DOT = .77285E-3
MEAN_MOTION_DDOT = 0

